[
  {
    "COMMENT": "GENERATED VIA SPACETRACK.ORG API",
    "ORIGINATOR": "18 SPCS",
    "NORAD_CAT_ID": "54754",
    "OBJECT_NAME": "SWOT",
    "OBJECT_TYPE": "PAYLOAD",
    "CLASSIFICATION_TYPE": "U",
    "INTLDES": "22173A",
    "EPOCH": "2023-10-31 20:35:28",
    "EPOCH_MICROSECONDS": "758336",
    "MEAN_MOTION": "14.00168521",
    "ECCENTRICITY": "0.0000104",
    "INCLINATION": "77.6098",
    "RA_OF_ASC_NODE": "250.2963",
    "ARG_OF_PERICENTER": "58.9764",
    "MEAN_ANOMALY": "301.1398",
    "EPHEMERIS_TYPE": "0",
    "ELEMENT_SET_NO": "999",
    "REV_AT_EPOCH": "4489",
    "BSTAR": "0.000043568",
    "MEAN_MOTION_DOT": "0.00000062",
    "MEAN_MOTION_DDOT": "0",
    "FILE": "4063529",
    "TLE_LINE0": "0 SWOT",
    "TLE_LINE1": "1 54754U 22173A   23304.85797174  .00000062  00000-0  43568-4 0  9998",
    "TLE_LINE2": "2 54754  77.6098 250.2963 0000104  58.9764 301.1398 14.00168521 44893",
    "OBJECT_ID": "2022-173A",
    "OBJECT_NUMBER": "54754",
    "SEMIMAJOR_AXIS": "7271.349",
    "PERIOD": "102.845",
    "APOGEE": "893.289",
    "PERIGEE": "893.138",
    "DECAYED": "0"
  },
  {
    "COMMENT": "GENERATED VIA SPACETRACK.ORG API",
    "ORIGINATOR": "18 SPCS",
    "NORAD_CAT_ID": "54754",
    "OBJECT_NAME": "SWOT",
    "OBJECT_TYPE": "PAYLOAD",
    "CLASSIFICATION_TYPE": "U",
    "INTLDES": "22173A",
    "EPOCH": "2023-10-31 22:18:22",
    "EPOCH_MICROSECONDS": "414176",
    "MEAN_MOTION": "14.0016854",
    "ECCENTRICITY": "0.0000104",
    "INCLINATION": "77.6098",
    "RA_OF_ASC_NODE": "250.1999",
    "ARG_OF_PERICENTER": "58.9697",
    "MEAN_ANOMALY": "301.1465",
    "EPHEMERIS_TYPE": "0",
    "ELEMENT_SET_NO": "999",
    "REV_AT_EPOCH": "4490",
    "BSTAR": "0.000045758",
    "MEAN_MOTION_DOT": "0.00000065",
    "MEAN_MOTION_DDOT": "0",
    "FILE": "4063660",
    "TLE_LINE0": "0 SWOT",
    "TLE_LINE1": "1 54754U 22173A   23304.92942609  .00000065  00000-0  45758-4 0  9997",
    "TLE_LINE2": "2 54754  77.6098 250.1999 0000104  58.9697 301.1465 14.00168540 44904",
    "OBJECT_ID": "2022-173A",
    "OBJECT_NUMBER": "54754",
    "SEMIMAJOR_AXIS": "7271.349",
    "PERIOD": "102.845",
    "APOGEE": "893.289",
    "PERIGEE": "893.138",
    "DECAYED": "0"
  },
  {
    "COMMENT": "GENERATED VIA SPACETRACK.ORG API",
    "ORIGINATOR": "18 SPCS",
    "NORAD_CAT_ID": "54754",
    "OBJECT_NAME": "SWOT",
    "OBJECT_TYPE": "PAYLOAD",
    "CLASSIFICATION_TYPE": "U",
    "INTLDES": "22173A",
    "EPOCH": "2023-11-01 12:01:31",
    "EPOCH_MICROSECONDS": "669536",
    "MEAN_MOTION": "14.00168578",
    "ECCENTRICITY": "0.0000114",
    "INCLINATION": "77.6099",
    "RA_OF_ASC_NODE": "249.4282",
    "ARG_OF_PERICENTER": "59.4733",
    "MEAN_ANOMALY": "300.643",
    "EPHEMERIS_TYPE": "0",
    "ELEMENT_SET_NO": "999",
    "REV_AT_EPOCH": "4498",
    "BSTAR": "0.000043127",
    "MEAN_MOTION_DOT": "0.00000061",
    "MEAN_MOTION_DDOT": "0",
    "FILE": "4064888",
    "TLE_LINE0": "0 SWOT",
    "TLE_LINE1": "1 54754U 22173A   23305.50106099  .00000061  00000-0  43127-4 0  9991",
    "TLE_LINE2": "2 54754  77.6099 249.4282 0000114  59.4733 300.6430 14.00168578 44984",
    "OBJECT_ID": "2022-173A",
    "OBJECT_NUMBER": "54754",
    "SEMIMAJOR_AXIS": "7271.348",
    "PERIOD": "102.845",
    "APOGEE": "893.296",
    "PERIGEE": "893.131",
    "DECAYED": "0"
  },
  {
    "COMMENT": "GENERATED VIA SPACETRACK.ORG API",
    "ORIGINATOR": "18 SPCS",
    "NORAD_CAT_ID": "54754",
    "OBJECT_NAME": "SWOT",
    "OBJECT_TYPE": "PAYLOAD",
    "CLASSIFICATION_TYPE": "U",
    "INTLDES": "22173A",
    "EPOCH": "2023-11-01 20:35:59",
    "EPOCH_MICROSECONDS": "953920",
    "MEAN_MOTION": "14.00168648",
    "ECCENTRICITY": "0.0000123",
    "INCLINATION": "77.61",
    "RA_OF_ASC_NODE": "248.9459",
    "ARG_OF_PERICENTER": "62.9192",
    "MEAN_ANOMALY": "297.1972",
    "EPHEMERIS_TYPE": "0",
    "ELEMENT_SET_NO": "999",
    "REV_AT_EPOCH": "4503",
    "BSTAR": "0.000049374",
    "MEAN_MOTION_DOT": "0.0000007",
    "MEAN_MOTION_DDOT": "0",
    "FILE": "4065280",
    "TLE_LINE0": "0 SWOT",
    "TLE_LINE1": "1 54754U 22173A   23305.85833280  .00000070  00000-0  49374-4 0  9998",
    "TLE_LINE2": "2 54754  77.6100 248.9459 0000123  62.9192 297.1972 14.00168648 45031",
    "OBJECT_ID": "2022-173A",
    "OBJECT_NUMBER": "54754",
    "SEMIMAJOR_AXIS": "7271.348",
    "PERIOD": "102.845",
    "APOGEE": "893.303",
    "PERIGEE": "893.124",
    "DECAYED": "0"
  },
  {
    "COMMENT": "GENERATED VIA SPACETRACK.ORG API",
    "ORIGINATOR": "18 SPCS",
    "NORAD_CAT_ID": "54754",
    "OBJECT_NAME": "SWOT",
    "OBJECT_TYPE": "PAYLOAD",
    "CLASSIFICATION_TYPE": "U",
    "INTLDES": "22173A",
    "EPOCH": "2023-11-01 22:18:53",
    "EPOCH_MICROSECONDS": "609760",
    "MEAN_MOTION": "14.00168653",
    "ECCENTRICITY": "0.0000123",
    "INCLINATION": "77.61",
    "RA_OF_ASC_NODE": "248.8495",
    "ARG_OF_PERICENTER": "63.575",
    "MEAN_ANOMALY": "296.5414",
    "EPHEMERIS_TYPE": "0",
    "ELEMENT_SET_NO": "999",
    "REV_AT_EPOCH": "4504",
    "BSTAR": "0.000049286",
    "MEAN_MOTION_DOT": "0.0000007",
    "MEAN_MOTION_DDOT": "0",
    "FILE": "4065398",
    "TLE_LINE0": "0 SWOT",
    "TLE_LINE1": "1 54754U 22173A   23305.92978715  .00000070  00000-0  49286-4 0  9991",
    "TLE_LINE2": "2 54754  77.6100 248.8495 0000123  63.5750 296.5414 14.00168653 45048",
    "OBJECT_ID": "2022-173A",
    "OBJECT_NUMBER": "54754",
    "SEMIMAJOR_AXIS": "7271.348",
    "PERIOD": "102.845",
    "APOGEE": "893.303",
    "PERIGEE": "893.124",
    "DECAYED": "0"
  },
  {
    "COMMENT": "GENERATED VIA SPACETRACK.ORG API",
    "ORIGINATOR": "18 SPCS",
    "NORAD_CAT_ID": "54754",
    "OBJECT_NAME": "SWOT",
    "OBJECT_TYPE": "PAYLOAD",
    "CLASSIFICATION_TYPE": "U",
    "INTLDES": "22173A",
    "EPOCH": "2023-11-02 13:44:56",
    "EPOCH_MICROSECONDS": "512320",
    "MEAN_MOTION": "14.00168843",
    "ECCENTRICITY": "0.0000132",
    "INCLINATION": "77.6101",
    "RA_OF_ASC_NODE": "247.9813",
    "ARG_OF_PERICENTER": "64.8125",
    "MEAN_ANOMALY": "295.304",
    "EPHEMERIS_TYPE": "0",
    "ELEMENT_SET_NO": "999",
    "REV_AT_EPOCH": "4513",
    "BSTAR": "0.000073734",
    "MEAN_MOTION_DOT": "0.00000106",
    "MEAN_MOTION_DDOT": "0",
    "FILE": "4066590",
    "TLE_LINE0": "0 SWOT",
    "TLE_LINE1": "1 54754U 22173A   23306.57287630  .00000106  00000-0  73734-4 0  9997",
    "TLE_LINE2": "2 54754  77.6101 247.9813 0000132  64.8125 295.3040 14.00168843 45136",
    "OBJECT_ID": "2022-173A",
    "OBJECT_NUMBER": "54754",
    "SEMIMAJOR_AXIS": "7271.348",
    "PERIOD": "102.845",
    "APOGEE": "893.309",
    "PERIGEE": "893.117",
    "DECAYED": "0"
  },
  {
    "COMMENT": "GENERATED VIA SPACETRACK.ORG API",
    "ORIGINATOR": "18 SPCS",
    "NORAD_CAT_ID": "54754",
    "OBJECT_NAME": "SWOT",
    "OBJECT_TYPE": "PAYLOAD",
    "CLASSIFICATION_TYPE": "U",
    "INTLDES": "22173A",
    "EPOCH": "2023-11-02 20:36:31",
    "EPOCH_MICROSECONDS": "133952",
    "MEAN_MOTION": "14.0016892",
    "ECCENTRICITY": "0.0000139",
    "INCLINATION": "77.6101",
    "RA_OF_ASC_NODE": "247.5955",
    "ARG_OF_PERICENTER": "68.6238",
    "MEAN_ANOMALY": "291.4928",
    "EPHEMERIS_TYPE": "0",
    "ELEMENT_SET_NO": "999",
    "REV_AT_EPOCH": "4517",
    "BSTAR": "0.000082519",
    "MEAN_MOTION_DOT": "0.00000119",
    "MEAN_MOTION_DDOT": "0",
    "FILE": "4066955",
    "TLE_LINE0": "0 SWOT",
    "TLE_LINE1": "1 54754U 22173A   23306.85869368  .00000119  00000-0  82519-4 0  9997",
    "TLE_LINE2": "2 54754  77.6101 247.5955 0000139  68.6238 291.4928 14.00168920 45175",
    "OBJECT_ID": "2022-173A",
    "OBJECT_NUMBER": "54754",
    "SEMIMAJOR_AXIS": "7271.347",
    "PERIOD": "102.845",
    "APOGEE": "893.313",
    "PERIGEE": "893.111",
    "DECAYED": "0"
  },
  {
    "COMMENT": "GENERATED VIA SPACETRACK.ORG API",
    "ORIGINATOR": "18 SPCS",
    "NORAD_CAT_ID": "54754",
    "OBJECT_NAME": "SWOT",
    "OBJECT_TYPE": "PAYLOAD",
    "CLASSIFICATION_TYPE": "U",
    "INTLDES": "22173A",
    "EPOCH": "2023-11-02 22:19:24",
    "EPOCH_MICROSECONDS": "788928",
    "MEAN_MOTION": "14.00168927",
    "ECCENTRICITY": "0.0000139",
    "INCLINATION": "77.6102",
    "RA_OF_ASC_NODE": "247.4991",
    "ARG_OF_PERICENTER": "69.0986",
    "MEAN_ANOMALY": "291.018",
    "EPHEMERIS_TYPE": "0",
    "ELEMENT_SET_NO": "999",
    "REV_AT_EPOCH": "4518",
    "BSTAR": "0.000082468",
    "MEAN_MOTION_DOT": "0.00000119",
    "MEAN_MOTION_DDOT": "0",
    "FILE": "4067000",
    "TLE_LINE0": "0 SWOT",
    "TLE_LINE1": "1 54754U 22173A   23306.93014802  .00000119  00000-0  82468-4 0  9994",
    "TLE_LINE2": "2 54754  77.6102 247.4991 0000139  69.0986 291.0180 14.00168927 45184",
    "OBJECT_ID": "2022-173A",
    "OBJECT_NUMBER": "54754",
    "SEMIMAJOR_AXIS": "7271.347",
    "PERIOD": "102.845",
    "APOGEE": "893.313",
    "PERIGEE": "893.111",
    "DECAYED": "0"
  }
]